[{"OBJECT_NAME":"OOV-CUBE (TUBSAT-30)","OBJECT_ID":"2024-128F","EPOCH":"2026-03-14T19:42:41.834592","MEAN_MOTION":15.02295176,"ECCENTRICITY":0.00540903,"INCLINATION":61.9949,"RA_OF_ASC_NODE":194.5051,"ARG_OF_PERICENTER":113.3874,"MEAN_ANOMALY":247.2919,"EPHEMERIS_TYPE":0,"CLASSIFICATION_TYPE":"U","NORAD_CAT_ID":60240,"ELEMENT_SET_NO":999,"REV_AT_EPOCH":9193,"BSTAR":0.00030018279,"MEAN_MOTION_DOT":3.896e-5,"MEAN_MOTION_DDOT":0},{"OBJECT_NAME":"COLIBRI-S (RS67S)","OBJECT_ID":"2024-199M","EPOCH":"2026-03-15T06:13:50.747232","MEAN_MOTION":15.43742412,"ECCENTRICITY":0.00074606,"INCLINATION":97.3156,"RA_OF_ASC_NODE":307.4499,"ARG_OF_PERICENTER":259.8353,"MEAN_ANOMALY":100.2053,"EPHEMERIS_TYPE":0,"CLASSIFICATION_TYPE":"U","NORAD_CAT_ID":61746,"ELEMENT_SET_NO":999,"REV_AT_EPOCH":12290,"BSTAR":0.00054730119,"MEAN_MOTION_DOT":0.00024711,"MEAN_MOTION_DDOT":0},{"OBJECT_NAME":"HORS 3 (RS81S)","OBJECT_ID":"2024-199U","EPOCH":"2026-03-15T06:26:06.982368","MEAN_MOTION":15.4879526,"ECCENTRICITY":0.00052921,"INCLINATION":97.3124,"RA_OF_ASC_NODE":308.6045,"ARG_OF_PERICENTER":262.2543,"MEAN_ANOMALY":97.8107,"EPHEMERIS_TYPE":0,"CLASSIFICATION_TYPE":"U","NORAD_CAT_ID":61753,"ELEMENT_SET_NO":999,"REV_AT_EPOCH":12299,"BSTAR":0.00067728664,"MEAN_MOTION_DOT":0.00036428,"MEAN_MOTION_DDOT":0},{"OBJECT_NAME":"HORS 4 (RS82S)","OBJECT_ID":"2024-199V","EPOCH":"2026-03-15T06:16:07.756032","MEAN_MOTION":15.51697001,"ECCENTRICITY":0.00049665,"INCLINATION":97.3096,"RA_OF_ASC_NODE":309.3166,"ARG_OF_PERICENTER":257.7006,"MEAN_ANOMALY":102.3691,"EPHEMERIS_TYPE":0,"CLASSIFICATION_TYPE":"U","NORAD_CAT_ID":61754,"ELEMENT_SET_NO":999,"REV_AT_EPOCH":12304,"BSTAR":0.0007382118,"MEAN_MOTION_DOT":0.00044033,"MEAN_MOTION_DDOT":0},{"OBJECT_NAME":"HORIZON (RS59S)","OBJECT_ID":"2024-199Y","EPOCH":"2026-03-15T06:54:20.635776","MEAN_MOTION":15.71975267,"ECCENTRICITY":0.00036758,"INCLINATION":97.3063,"RA_OF_ASC_NODE":313.348,"ARG_OF_PERICENTER":213.9335,"MEAN_ANOMALY":146.1694,"EPHEMERIS_TYPE":0,"CLASSIFICATION_TYPE":"U","NORAD_CAT_ID":61757,"ELEMENT_SET_NO":999,"REV_AT_EPOCH":12330,"BSTAR":0.0012445861,"MEAN_MOTION_DOT":0.0016497,"MEAN_MOTION_DDOT":0},{"OBJECT_NAME":"ARCTICSAT 1 (RS74S)","OBJECT_ID":"2024-199AD","EPOCH":"2026-03-15T06:05:10.602816","MEAN_MOTION":15.67011777,"ECCENTRICITY":0.00039242,"INCLINATION":97.3081,"RA_OF_ASC_NODE":312.795,"ARG_OF_PERICENTER":216.2074,"MEAN_ANOMALY":143.8922,"EPHEMERIS_TYPE":0,"CLASSIFICATION_TYPE":"U","NORAD_CAT_ID":61762,"ELEMENT_SET_NO":999,"REV_AT_EPOCH":12326,"BSTAR":0.0011008599,"MEAN_MOTION_DOT":0.00118332,"MEAN_MOTION_DDOT":0},{"OBJECT_NAME":"SIT-2086","OBJECT_ID":"2024-199AF","EPOCH":"2026-03-15T06:45:54.825120","MEAN_MOTION":15.47961792,"ECCENTRICITY":0.00059598,"INCLINATION":97.3119,"RA_OF_ASC_NODE":309.3423,"ARG_OF_PERICENTER":248.4167,"MEAN_ANOMALY":111.6449,"EPHEMERIS_TYPE":0,"CLASSIFICATION_TYPE":"U","NORAD_CAT_ID":61764,"ELEMENT_SET_NO":999,"REV_AT_EPOCH":11988,"BSTAR":0.00051095003,"MEAN_MOTION_DOT":0.00026644,"MEAN_MOTION_DDOT":0},{"OBJECT_NAME":"HYPERVIEW 1G (RS66S)","OBJECT_ID":"2024-199AP","EPOCH":"2026-03-15T06:41:25.130112","MEAN_MOTION":15.58830903,"ECCENTRICITY":0.00063547,"INCLINATION":97.3081,"RA_OF_ASC_NODE":310.4993,"ARG_OF_PERICENTER":256.3974,"MEAN_ANOMALY":103.6575,"EPHEMERIS_TYPE":0,"CLASSIFICATION_TYPE":"U","NORAD_CAT_ID":61772,"ELEMENT_SET_NO":999,"REV_AT_EPOCH":11997,"BSTAR":0.00094294617,"MEAN_MOTION_DOT":0.00073361,"MEAN_MOTION_DDOT":0},{"OBJECT_NAME":"ALTAIR (RS65S)","OBJECT_ID":"2024-199AW","EPOCH":"2026-03-15T07:23:01.144896","MEAN_MOTION":15.35111808,"ECCENTRICITY":0.00117362,"INCLINATION":97.3181,"RA_OF_ASC_NODE":304.3246,"ARG_OF_PERICENTER":285.6293,"MEAN_ANOMALY":74.3655,"EPHEMERIS_TYPE":0,"CLASSIFICATION_TYPE":"U","NORAD_CAT_ID":61779,"ELEMENT_SET_NO":999,"REV_AT_EPOCH":12270,"BSTAR":0.00036821861,"MEAN_MOTION_DOT":0.000125,"MEAN_MOTION_DDOT":0},{"OBJECT_NAME":"ASRTU-1 (AO-123)","OBJECT_ID":"2024-199AY","EPOCH":"2026-03-15T06:58:33.888000","MEAN_MOTION":15.34187945,"ECCENTRICITY":0.00124718,"INCLINATION":97.3154,"RA_OF_ASC_NODE":303.8249,"ARG_OF_PERICENTER":287.7789,"MEAN_ANOMALY":72.2092,"EPHEMERIS_TYPE":0,"CLASSIFICATION_TYPE":"U","NORAD_CAT_ID":61781,"ELEMENT_SET_NO":999,"REV_AT_EPOCH":11952,"BSTAR":0.00032404434,"MEAN_MOTION_DOT":0.00010673,"MEAN_MOTION_DDOT":0},{"OBJECT_NAME":"TUSUR GO (RS78S)","OBJECT_ID":"2024-199AZ","EPOCH":"2026-03-15T07:09:24.632064","MEAN_MOTION":15.72786286,"ECCENTRICITY":0.00038008,"INCLINATION":97.3012,"RA_OF_ASC_NODE":312.3716,"ARG_OF_PERICENTER":233.5735,"MEAN_ANOMALY":126.5179,"EPHEMERIS_TYPE":0,"CLASSIFICATION_TYPE":"U","NORAD_CAT_ID":61782,"ELEMENT_SET_NO":999,"REV_AT_EPOCH":12010,"BSTAR":0.001393278,"MEAN_MOTION_DOT":0.00191723,"MEAN_MOTION_DDOT":0},{"OBJECT_NAME":"SAMSAT-IONOSPHERE (RS75S)","OBJECT_ID":"2024-199BB","EPOCH":"2026-03-15T06:54:44.826048","MEAN_MOTION":15.50039852,"ECCENTRICITY":0.00083936,"INCLINATION":97.3117,"RA_OF_ASC_NODE":308.4265,"ARG_OF_PERICENTER":267.9316,"MEAN_ANOMALY":92.0974,"EPHEMERIS_TYPE":0,"CLASSIFICATION_TYPE":"U","NORAD_CAT_ID":61784,"ELEMENT_SET_NO":999,"REV_AT_EPOCH":12298,"BSTAR":0.00075976126,"MEAN_MOTION_DOT":0.00042768,"MEAN_MOTION_DDOT":0},{"OBJECT_NAME":"RTU MIREA 1 (RS51S)","OBJECT_ID":"2024-199BC","EPOCH":"2026-03-15T06:41:34.865664","MEAN_MOTION":15.52038145,"ECCENTRICITY":0.00083697,"INCLINATION":97.3115,"RA_OF_ASC_NODE":308.8784,"ARG_OF_PERICENTER":263.3812,"MEAN_ANOMALY":96.6488,"EPHEMERIS_TYPE":0,"CLASSIFICATION_TYPE":"U","NORAD_CAT_ID":61785,"ELEMENT_SET_NO":999,"REV_AT_EPOCH":11986,"BSTAR":0.00079720319,"MEAN_MOTION_DOT":0.00048212,"MEAN_MOTION_DDOT":0},{"OBJECT_NAME":"TEVEL2-4","OBJECT_ID":"2025-052D","EPOCH":"2026-03-15T05:59:16.190016","MEAN_MOTION":15.31185392,"ECCENTRICITY":0.00047858,"INCLINATION":97.4018,"RA_OF_ASC_NODE":330.6659,"ARG_OF_PERICENTER":85.4822,"MEAN_ANOMALY":274.6966,"EPHEMERIS_TYPE":0,"CLASSIFICATION_TYPE":"U","NORAD_CAT_ID":63213,"ELEMENT_SET_NO":999,"REV_AT_EPOCH":5572,"BSTAR":0.00074800028,"MEAN_MOTION_DOT":0.00022504,"MEAN_MOTION_DDOT":0},{"OBJECT_NAME":"TEVEL2-5","OBJECT_ID":"2025-052E","EPOCH":"2026-03-15T06:15:40.999680","MEAN_MOTION":15.31058896,"ECCENTRICITY":0.00047593,"INCLINATION":97.4013,"RA_OF_ASC_NODE":330.6488,"ARG_OF_PERICENTER":85.0932,"MEAN_ANOMALY":275.0853,"EPHEMERIS_TYPE":0,"CLASSIFICATION_TYPE":"U","NORAD_CAT_ID":63214,"ELEMENT_SET_NO":999,"REV_AT_EPOCH":5572,"BSTAR":0.00073370818,"MEAN_MOTION_DOT":0.00021984,"MEAN_MOTION_DDOT":0},{"OBJECT_NAME":"TEVEL2-6","OBJECT_ID":"2025-052F","EPOCH":"2026-03-15T06:30:02.786976","MEAN_MOTION":15.31018714,"ECCENTRICITY":0.00048495,"INCLINATION":97.4018,"RA_OF_ASC_NODE":330.6446,"ARG_OF_PERICENTER":86.6586,"MEAN_ANOMALY":273.521,"EPHEMERIS_TYPE":0,"CLASSIFICATION_TYPE":"U","NORAD_CAT_ID":63215,"ELEMENT_SET_NO":999,"REV_AT_EPOCH":5572,"BSTAR":0.00073422745,"MEAN_MOTION_DOT":0.00021973,"MEAN_MOTION_DDOT":0}]
