OOV-CUBE (TUBSAT-30)    
1 60240U 24128F   26073.82131753  .00003896  00000+0  30018-3 0  9997
2 60240  61.9949 194.5051 0054090 113.3874 247.2919 15.02295176 91936
COLIBRI-S (RS67S)       
1 61746U 24199M   26074.25961513  .00024711  00000+0  54730-3 0  9996
2 61746  97.3156 307.4499 0007460 259.8353 100.2053 15.43742412122903
HORS 3 (RS81S)          
1 61753U 24199U   26074.26813637  .00036428  00000+0  67729-3 0  9998
2 61753  97.3124 308.6045 0005292 262.2543  97.8107 15.48795260122990
HORS 4 (RS82S)          
1 61754U 24199V   26074.26120088  .00044033  00000+0  73821-3 0  9991
2 61754  97.3096 309.3166 0004966 257.7006 102.3691 15.51697001123046
HORIZON (RS59S)         
1 61757U 24199Y   26074.28773884  .00164970  00000+0  12446-2 0  9992
2 61757  97.3063 313.3480 0003675 213.9335 146.1694 15.71975267123305
ARCTICSAT 1 (RS74S)     
1 61762U 24199AD  26074.25359494  .00118332  00000+0  11009-2 0  9997
2 61762  97.3081 312.7950 0003924 216.2074 143.8922 15.67011777123264
SIT-2086                
1 61764U 24199AF  26074.28188455  .00026644  00000+0  51095-3 0  9993
2 61764  97.3119 309.3423 0005959 248.4167 111.6449 15.47961792119884
HYPERVIEW 1G (RS66S)    
1 61772U 24199AP  26074.27876308  .00073361  00000+0  94295-3 0  9999
2 61772  97.3081 310.4993 0006354 256.3974 103.6575 15.58830903119972
ALTAIR (RS65S)          
1 61779U 24199AW  26074.30765214  .00012500  00000+0  36822-3 0  9993
2 61779  97.3181 304.3246 0011736 285.6293  74.3655 15.35111808122701
ASRTU-1 (AO-123)        
1 61781U 24199AY  26074.29067000  .00010673  00000+0  32404-3 0  9993
2 61781  97.3154 303.8249 0012471 287.7789  72.2092 15.34187945119523
TUSUR GO (RS78S)        
1 61782U 24199AZ  26074.29820176  .00191723  00000+0  13933-2 0  9996
2 61782  97.3012 312.3716 0003800 233.5735 126.5179 15.72786286120107
SAMSAT-IONOSPHERE (RS7*)
1 61784U 24199BB  26074.28801882  .00042768  00000+0  75976-3 0  9990
2 61784  97.3117 308.4265 0008393 267.9316  92.0974 15.50039852122982
RTU MIREA 1 (RS51S)     
1 61785U 24199BC  26074.27887576  .00048212  00000+0  79720-3 0  9995
2 61785  97.3115 308.8784 0008369 263.3812  96.6488 15.52038145119864
TEVEL2-4                
1 63213U 25052D   26074.24949294  .00022504  00000+0  74800-3 0  9995
2 63213  97.4018 330.6659 0004785  85.4822 274.6966 15.31185392 55728
TEVEL2-5                
1 63214U 25052E   26074.26089120  .00021984  00000+0  73371-3 0  9994
2 63214  97.4013 330.6488 0004759  85.0932 275.0853 15.31058896 55721
TEVEL2-6                
1 63215U 25052F   26074.27086559  .00021973  00000+0  73423-3 0  9995
2 63215  97.4018 330.6446 0004849  86.6586 273.5210 15.31018714 55728
